{"fetched_at":"2026-07-24T07:06:13.624Z","source":"https://celestrak.org/NORAD/elements/gp.php?GROUP=spire&FORMAT=JSON","constellation":"spire","records":[{"OBJECT_NAME":"LEMUR-1","OBJECT_ID":"2014-033AL","EPOCH":"2026-07-23T20:58:59.538144","CLASSIFICATION_TYPE":"U","MEAN_MOTION":14.85356761,"ECCENTRICITY":0.0047119,"INCLINATION":97.7919,"RA_OF_ASC_NODE":353.876,"ARG_OF_PERICENTER":319.0161,"MEAN_ANOMALY":40.7516,"EPHEMERIS_TYPE":0,"NORAD_CAT_ID":40044,"ELEMENT_SET_NO":999,"REV_AT_EPOCH":65091,"BSTAR":0.00017657,"MEAN_MOTION_DOT":0.00001493,"MEAN_MOTION_DDOT":0},{"OBJECT_NAME":"LEMUR-2-GREENBERG","OBJECT_ID":"2017-042N","EPOCH":"2026-07-22T22:46:34.505472","CLASSIFICATION_TYPE":"U","MEAN_MOTION":15.32339048,"ECCENTRICITY":0.00076392,"INCLINATION":97.3839,"RA_OF_ASC_NODE":24.44,"ARG_OF_PERICENTER":227.5103,"MEAN_ANOMALY":132.5494,"EPHEMERIS_TYPE":0,"NORAD_CAT_ID":42837,"ELEMENT_SET_NO":999,"REV_AT_EPOCH":49386,"BSTAR":0.00062365481,"MEAN_MOTION_DOT":0.00019439,"MEAN_MOTION_DDOT":0},{"OBJECT_NAME":"LEMUR-2-ANDIS","OBJECT_ID":"2017-042P","EPOCH":"2026-07-23T17:44:51.254304","CLASSIFICATION_TYPE":"U","MEAN_MOTION":15.36203727,"ECCENTRICITY":0.0007659,"INCLINATION":97.369,"RA_OF_ASC_NODE":25.5454,"ARG_OF_PERICENTER":223.6728,"MEAN_ANOMALY":136.3911,"EPHEMERIS_TYPE":0,"NORAD_CAT_ID":42838,"ELEMENT_SET_NO":999,"REV_AT_EPOCH":49406,"BSTAR":0.00057885,"MEAN_MOTION_DOT":0.0002039,"MEAN_MOTION_DDOT":0},{"OBJECT_NAME":"LEMUR-2-MONSON","OBJECT_ID":"2017-042Q","EPOCH":"2026-07-23T02:26:39.512544","CLASSIFICATION_TYPE":"U","MEAN_MOTION":15.28924414,"ECCENTRICITY":0.00058613,"INCLINATION":97.4103,"RA_OF_ASC_NODE":24.5078,"ARG_OF_PERICENTER":213.0819,"MEAN_ANOMALY":147.0055,"EPHEMERIS_TYPE":0,"NORAD_CAT_ID":42839,"ELEMENT_SET_NO":999,"REV_AT_EPOCH":49365,"BSTAR":0.00061671021,"MEAN_MOTION_DOT":0.00017282,"MEAN_MOTION_DDOT":0},{"OBJECT_NAME":"LEMUR-2-FURIAUS","OBJECT_ID":"2017-042R","EPOCH":"2026-07-22T23:12:36.620928","CLASSIFICATION_TYPE":"U","MEAN_MOTION":15.31323478,"ECCENTRICITY":0.00056366,"INCLINATION":97.3787,"RA_OF_ASC_NODE":22.3327,"ARG_OF_PERICENTER":296.2967,"MEAN_ANOMALY":63.7695,"EPHEMERIS_TYPE":0,"NORAD_CAT_ID":42840,"ELEMENT_SET_NO":999,"REV_AT_EPOCH":49368,"BSTAR":0.00068329855,"MEAN_MOTION_DOT":0.00020637,"MEAN_MOTION_DDOT":0},{"OBJECT_NAME":"LEMUR-2-PETERG","OBJECT_ID":"2017-042S","EPOCH":"2026-07-23T17:53:21.541344","CLASSIFICATION_TYPE":"U","MEAN_MOTION":15.35293489,"ECCENTRICITY":0.0003998,"INCLINATION":97.4004,"RA_OF_ASC_NODE":29.8759,"ARG_OF_PERICENTER":186.4716,"MEAN_ANOMALY":173.6477,"EPHEMERIS_TYPE":0,"NORAD_CAT_ID":42841,"ELEMENT_SET_NO":999,"REV_AT_EPOCH":49404,"BSTAR":0.00064355,"MEAN_MOTION_DOT":0.00022017,"MEAN_MOTION_DDOT":0},{"OBJECT_NAME":"LEMUR-2-DEMBITZ","OBJECT_ID":"2017-042T","EPOCH":"2026-07-23T15:22:13.279872","CLASSIFICATION_TYPE":"U","MEAN_MOTION":15.31312059,"ECCENTRICITY":0.0005387,"INCLINATION":97.3836,"RA_OF_ASC_NODE":26.052,"ARG_OF_PERICENTER":236.4726,"MEAN_ANOMALY":123.6001,"EPHEMERIS_TYPE":0,"NORAD_CAT_ID":42842,"ELEMENT_SET_NO":999,"REV_AT_EPOCH":49392,"BSTAR":0.00057215,"MEAN_MOTION_DOT":0.00017253,"MEAN_MOTION_DDOT":0},{"OBJECT_NAME":"LEMUR-2-ZACHARY","OBJECT_ID":"2017-042W","EPOCH":"2026-07-23T01:00:44.458272","CLASSIFICATION_TYPE":"U","MEAN_MOTION":15.53318099,"ECCENTRICITY":0.00030784,"INCLINATION":97.358,"RA_OF_ASC_NODE":36.5204,"ARG_OF_PERICENTER":214.2552,"MEAN_ANOMALY":145.8503,"EPHEMERIS_TYPE":0,"NORAD_CAT_ID":42845,"ELEMENT_SET_NO":999,"REV_AT_EPOCH":49476,"BSTAR":0.00094823677,"MEAN_MOTION_DOT":0.00060078,"MEAN_MOTION_DDOT":0},{"OBJECT_NAME":"LEMUR-2-AMANDA-SVANTE","OBJECT_ID":"2021-034B","EPOCH":"2026-07-23T20:29:31.066656","CLASSIFICATION_TYPE":"U","MEAN_MOTION":15.36396885,"ECCENTRICITY":0.0004713,"INCLINATION":97.5743,"RA_OF_ASC_NODE":284.1606,"ARG_OF_PERICENTER":124.3186,"MEAN_ANOMALY":235.8504,"EPHEMERIS_TYPE":0,"NORAD_CAT_ID":48269,"ELEMENT_SET_NO":999,"REV_AT_EPOCH":28668,"BSTAR":0.00096538,"MEAN_MOTION_DOT":0.00034311,"MEAN_MOTION_DDOT":0},{"OBJECT_NAME":"LEMUR-2-SPECIAL-K","OBJECT_ID":"2021-034F","EPOCH":"2026-07-23T17:05:56.919840","CLASSIFICATION_TYPE":"U","MEAN_MOTION":15.78680294,"ECCENTRICITY":0.0005911,"INCLINATION":97.5612,"RA_OF_ASC_NODE":294.5801,"ARG_OF_PERICENTER":212.3659,"MEAN_ANOMALY":147.7245,"EPHEMERIS_TYPE":0,"NORAD_CAT_ID":48273,"ELEMENT_SET_NO":999,"REV_AT_EPOCH":28742,"BSTAR":0.0020362,"MEAN_MOTION_DOT":0.00369802,"MEAN_MOTION_DDOT":0},{"OBJECT_NAME":"LEMUR-2-EMBRIONOVIS","OBJECT_ID":"2023-084AQ","EPOCH":"2026-07-23T09:01:37.961184","CLASSIFICATION_TYPE":"U","MEAN_MOTION":15.38397436,"ECCENTRICITY":0.0008967,"INCLINATION":97.633,"RA_OF_ASC_NODE":349.9973,"ARG_OF_PERICENTER":176.9139,"MEAN_ANOMALY":183.2162,"EPHEMERIS_TYPE":0,"NORAD_CAT_ID":56970,"ELEMENT_SET_NO":999,"REV_AT_EPOCH":17324,"BSTAR":0.00037474,"MEAN_MOTION_DOT":0.0001413,"MEAN_MOTION_DDOT":0},{"OBJECT_NAME":"LEMUR-2-DEVERILL-M-T","OBJECT_ID":"2023-100F","EPOCH":"2026-07-23T09:52:04.774368","CLASSIFICATION_TYPE":"U","MEAN_MOTION":15.41409931,"ECCENTRICITY":0.0004991,"INCLINATION":99.4452,"RA_OF_ASC_NODE":253.6815,"ARG_OF_PERICENTER":262.7804,"MEAN_ANOMALY":97.2868,"EPHEMERIS_TYPE":0,"NORAD_CAT_ID":57391,"ELEMENT_SET_NO":999,"REV_AT_EPOCH":16682,"BSTAR":0.00062916,"MEAN_MOTION_DOT":0.00026252,"MEAN_MOTION_DDOT":0},{"OBJECT_NAME":"LEMUR-2-BASS","OBJECT_ID":"2023-174D","EPOCH":"2026-07-23T16:55:34.294656","CLASSIFICATION_TYPE":"U","MEAN_MOTION":15.44217432,"ECCENTRICITY":0.0007054,"INCLINATION":97.3838,"RA_OF_ASC_NODE":289.956,"ARG_OF_PERICENTER":51.5132,"MEAN_ANOMALY":308.6748,"EPHEMERIS_TYPE":0,"NORAD_CAT_ID":58259,"ELEMENT_SET_NO":999,"REV_AT_EPOCH":15099,"BSTAR":0.00038879,"MEAN_MOTION_DOT":0.00017794,"MEAN_MOTION_DDOT":0},{"OBJECT_NAME":"LEMUR-2-JK0903EM1407","OBJECT_ID":"2023-174CJ","EPOCH":"2026-07-23T05:40:33.702816","CLASSIFICATION_TYPE":"U","MEAN_MOTION":15.5339767,"ECCENTRICITY":0.0002921,"INCLINATION":97.3918,"RA_OF_ASC_NODE":295.7684,"ARG_OF_PERICENTER":357.9462,"MEAN_ANOMALY":2.1779,"EPHEMERIS_TYPE":0,"NORAD_CAT_ID":58336,"ELEMENT_SET_NO":999,"REV_AT_EPOCH":15132,"BSTAR":0.00045247,"MEAN_MOTION_DOT":0.00028584,"MEAN_MOTION_DDOT":0},{"OBJECT_NAME":"LEMUR-2-MJR092620","OBJECT_ID":"2023-174CN","EPOCH":"2026-07-23T05:19:46.920576","CLASSIFICATION_TYPE":"U","MEAN_MOTION":15.46089805,"ECCENTRICITY":0.0004519,"INCLINATION":97.3967,"RA_OF_ASC_NODE":294.9463,"ARG_OF_PERICENTER":359.5789,"MEAN_ANOMALY":0.5456,"EPHEMERIS_TYPE":0,"NORAD_CAT_ID":58340,"ELEMENT_SET_NO":999,"REV_AT_EPOCH":15121,"BSTAR":0.00042714,"MEAN_MOTION_DOT":0.00020843,"MEAN_MOTION_DDOT":0},{"OBJECT_NAME":"LEMUR-2-NIMBUS2000","OBJECT_ID":"2024-022A","EPOCH":"2026-07-23T09:13:13.488096","CLASSIFICATION_TYPE":"U","MEAN_MOTION":15.41383552,"ECCENTRICITY":0.0007847,"INCLINATION":97.4082,"RA_OF_ASC_NODE":54.871,"ARG_OF_PERICENTER":359.5902,"MEAN_ANOMALY":0.5337,"EPHEMERIS_TYPE":0,"NORAD_CAT_ID":58899,"ELEMENT_SET_NO":999,"REV_AT_EPOCH":13784,"BSTAR":0.00052874,"MEAN_MOTION_DOT":0.00022052,"MEAN_MOTION_DDOT":0}]}
